OBJECT_NAME,OBJECT_ID,EPOCH,MEAN_MOTION,ECCENTRICITY,INCLINATION,RA_OF_ASC_NODE,ARG_OF_PERICENTER,MEAN_ANOMALY,EPHEMERIS_TYPE,CLASSIFICATION_TYPE,NORAD_CAT_ID,ELEMENT_SET_NO,REV_AT_EPOCH,BSTAR,MEAN_MOTION_DOT,MEAN_MOTION_DDOT
SL-8 R/B,1985-006B,2026-06-12T05:22:36.781248,14.37833017,.00187033,74.0459,87.1971,335.1973,133.7372,0,U,15483,999,16761,.74741735E-4,.199E-5,0
SL-12 R/B(2),1985-042D,2026-06-12T07:22:54.532704,14.22005059,.00360379,71.1081,247.8255,335.1673,81.7977,0,U,15772,999,12784,.16364713E-4,-.11E-6,0
SL-14 R/B,1985-069B,2026-06-12T02:53:48.532704,14.86511644,.00174681,82.5267,296.1310,237.0213,122.9325,0,U,15945,999,18686,.40078802E-4,.38E-5,0
SL-16 R/B,1985-097B,2026-06-12T03:14:06.561888,14.16611450,.00054716,71.0037,301.7149,121.9253,50.8151,0,U,16182,999,10060,-.97945275E-4,-.243E-5,0
SL-14 R/B,1986-006B,2026-06-12T01:43:26.993280,14.86940406,.00753056,82.5261,170.9272,320.7214,38.8552,0,U,16496,999,16323,.497946E-4,.494E-5,0
COSMOS 1743,1986-034A,2026-06-11T23:21:32.339808,15.66480460,.00037619,82.5272,334.2751,295.8467,64.2405,0,U,16719,999,19497,.44237142E-3,.46212E-3,0
SL-14 R/B,1986-046B,2026-06-12T05:40:10.916544,14.85667954,.00215777,82.4816,350.8543,276.0160,83.8597,0,U,16792,999,14044,.39960009E-4,.371E-5,0
SL-14 R/B,1986-055B,2026-06-12T04:07:33.777408,14.85720016,.00195123,82.5208,37.8484,23.9417,93.8076,0,U,16882,999,13339,.41395222E-4,.385E-5,0
AJISAI (EGS),1986-061A,2026-06-12T07:21:35.688384,12.44516840,.00112411,50.0063,162.4027,168.2070,214.6328,0,U,16908,999,47978,.15769206E-3,-.75E-6,0
SL-14 R/B,1987-024B,2026-06-12T00:47:59.630784,14.86209794,.00170563,82.5281,4.0953,311.6632,48.3124,0,U,17567,999,10214,.35355407E-4,.335E-5,0
COSMOS 1833,1987-027A,2026-06-12T07:04:12.494784,14.13046317,.00226747,70.9169,127.1523,63.2549,297.0889,0,U,17589,999,2368,.19503877E-3,.317E-5,0
SL-16 R/B,1987-027B,2026-06-12T06:36:19.947168,14.17172704,.00063325,71.0034,77.1793,318.0657,41.9981,0,U,17590,999,2874,-.10959757E-4,-.7E-6,0
SL-14 R/B,1987-038B,2026-06-12T03:27:33.842016,14.85442256,.00184444,82.5011,207.8225,208.2999,151.7217,0,U,17912,999,9325,.31118184E-4,.293E-5,0
COSMOS 1844,1987-041A,2026-06-12T07:09:57.045888,14.14569073,.00331246,70.8976,194.6194,242.6236,117.1514,0,U,17973,999,1696,-.58729931E-4,-.162E-5,0
SL-14 R/B,1987-055B,2026-06-12T07:21:30.221856,14.85707970,.00219622,82.4995,259.8297,62.8957,297.4496,0,U,18153,999,8398,.39784784E-4,.371E-5,0
COSMOS 1867,1987-060A,2026-06-12T00:48:03.848832,14.31515203,.00164258,65.0115,42.4925,282.1336,77.7908,0,U,18187,999,3344,.16442464E-4,-.56E-6,0
SL-14 R/B,1988-001B,2026-06-12T05:46:54.570432,14.85606274,.00165224,82.5130,106.4268,287.4851,72.4559,0,U,18749,999,5606,.43240766E-4,.399E-5,0
COSMOS 1933,1988-020A,2026-06-12T05:27:53.473536,15.18683048,.00029524,82.5116,157.3462,205.5008,154.6081,0,U,18958,999,6457,.14848218E-3,.3108E-4,0
SL-3 R/B,1988-032B,2026-06-12T05:49:23.911104,15.20804536,.00236369,97.5248,146.2881,263.5568,96.2975,0,U,19046,999,6647,.19354915E-3,.4226E-4,0
SL-16 R/B,1988-039B,2026-06-12T06:12:54.957024,14.19629583,.00225386,71.0142,228.5789,200.4124,159.6103,0,U,19120,999,97180,-.24974588E-4,-.101E-5,0
COSMOS 1953,1988-050A,2026-06-12T04:17:32.841312,15.29907976,.00117661,82.5086,63.0845,141.7367,218.4711,0,U,19210,999,5222,.23768514E-3,.6928E-4,0
SL-8 R/B,1988-053B,2026-06-12T03:51:09.202752,14.38965545,.00191662,74.0479,298.3232,95.5126,76.9809,0,U,19257,999,99018,.54088446E-4,.141E-5,0
COSMOS 1975,1988-093A,2026-06-12T01:12:57.208032,15.29261235,.00107836,82.5200,22.8693,189.4509,170.6530,0,U,19573,999,3382,.21996372E-3,.6286E-4,0
SL-14 R/B,1988-093B,2026-06-12T05:25:59.873952,14.85738248,.00221879,82.5307,313.3024,85.7424,1.0473,0,U,19574,999,1505,.45757993E-4,.424E-5,0
SL-16 R/B,1988-102B,2026-06-12T03:09:19.565280,14.16165812,.0016004,71.0003,312.7772,232.5252,127.4417,0,U,19650,999,94026,-.89907628E-4,-.226E-5,0
INTERCOSMOS 24,1989-080A,2026-06-12T04:07:15.981600,12.59654110,.11884037,82.6070,42.9082,73.5328,299.2807,0,U,20261,999,67869,.24565788E-3,.866E-5,0
SL-14 R/B,1989-080C,2026-06-12T06:46:49.713312,12.50567998,.12290134,82.5927,112.4585,328.6258,24.6791,0,U,20262,999,67197,.10189879E-3,.341E-5,0
DELTA 1 R/B,1989-089B,2026-06-12T06:04:37.943616,14.50728292,.00688103,97.0638,355.6010,182.5191,177.5671,0,U,20323,999,90944,.87378872E-4,.319E-5,0
ARIANE 40 R/B,1990-005H,2026-06-12T04:19:55.848000,14.39924951,.00088197,98.2959,220.9519,281.6761,78.3437,0,U,20443,999,90640,.85643721E-4,.227E-5,0
DELTA 2 R/B(1),1990-008B,2026-06-11T17:11:40.981056,15.67969753,.00661272,35.6000,272.2355,62.2827,298.4602,0,U,20453,999,94084,.65004718E-3,.85127E-3,0
