SL-8 R/B                
1 15483U 85006B   26163.22403682  .00000199  00000+0  74742-4 0  9991
2 15483  74.0459  87.1971 0018703 335.1973 133.7372 14.37833017167619
SL-12 R/B(2)            
1 15772U 85042D   26163.30757561 -.00000011  00000+0  16365-4 0  9990
2 15772  71.1081 247.8255 0036037 335.1673  81.7977 14.22005059127841
SL-14 R/B               
1 15945U 85069B   26163.12070061  .00000380  00000+0  40079-4 0  9991
2 15945  82.5267 296.1310 0017468 237.0213 122.9325 14.86511644186865
SL-16 R/B               
1 16182U 85097B   26163.13479817 -.00000243  00000+0 -97945-4 0  9993
2 16182  71.0037 301.7149 0005471 121.9253  50.8151 14.16611450100609
SL-14 R/B               
1 16496U 86006B   26163.07184020  .00000494  00000+0  49795-4 0  9990
2 16496  82.5261 170.9272 0075305 320.7214  38.8552 14.86940406163237
COSMOS 1743             
1 16719U 86034A   26162.97329097  .00046212  00000+0  44237-3 0  9995
2 16719  82.5272 334.2751 0003761 295.8467  64.2405 15.66480460194976
SL-14 R/B               
1 16792U 86046B   26163.23623746  .00000371  00000+0  39960-4 0  9991
2 16792  82.4816 350.8543 0021577 276.0160  83.8597 14.85667954140446
SL-14 R/B               
1 16882U 86055B   26163.17191872  .00000385  00000+0  41395-4 0  9994
2 16882  82.5208  37.8484 0019512  23.9417  93.8076 14.85720016133396
AJISAI (EGS)            
1 16908U 86061A   26163.30666306 -.00000075  00000+0  15769-3 0  9996
2 16908  50.0063 162.4027 0011241 168.2070 214.6328 12.44516840479781
SL-14 R/B               
1 17567U 87024B   26163.03332906  .00000335  00000+0  35355-4 0  9996
2 17567  82.5281   4.0953 0017056 311.6632  48.3124 14.86209794102146
COSMOS 1833             
1 17589U 87027A   26163.29458906  .00000317  00000+0  19504-3 0  9997
2 17589  70.9169 127.1523 0022674  63.2549 297.0889 14.13046317 23687
SL-16 R/B               
1 17590U 87027B   26163.27523087 -.00000070  00000+0 -10960-4 0  9996
2 17590  71.0034  77.1793 0006332 318.0657  41.9981 14.17172704 28744
SL-14 R/B               
1 17912U 87038B   26163.14414169  .00000293  00000+0  31118-4 0  9995
2 17912  82.5011 207.8225 0018444 208.2999 151.7217 14.85442256 93259
COSMOS 1844             
1 17973U 87041A   26163.29857692 -.00000162  00000+0 -58730-4 0  9990
2 17973  70.8976 194.6194 0033124 242.6236 117.1514 14.14569073 16960
SL-14 R/B               
1 18153U 87055B   26163.30659979  .00000371  00000+0  39785-4 0  9995
2 18153  82.4995 259.8297 0021962  62.8957 297.4496 14.85707970 83983
COSMOS 1867             
1 18187U 87060A   26163.03337788 -.00000056  00000+0  16442-4 0  9995
2 18187  65.0115  42.4925 0016425 282.1336  77.7908 14.31515203 33441
SL-14 R/B               
1 18749U 88001B   26163.24090938  .00000399  00000+0  43241-4 0  9997
2 18749  82.5130 106.4268 0016522 287.4851  72.4559 14.85606274 56060
COSMOS 1933             
1 18958U 88020A   26163.22770224  .00003108  00000+0  14848-3 0  9992
2 18958  82.5116 157.3462 0002952 205.5008 154.6081 15.18683048 64573
SL-3 R/B                
1 19046U 88032B   26163.24263786  .00004226  00000+0  19355-3 0  9996
2 19046  97.5248 146.2881 0023636 263.5568  96.2975 15.20804536 66477
SL-16 R/B               
1 19120U 88039B   26163.25896941 -.00000101  00000+0 -24975-4 0  9997
2 19120  71.0142 228.5789 0022538 200.4124 159.6103 14.19629583971802
COSMOS 1953             
1 19210U 88050A   26163.17885233  .00006928  00000+0  23769-3 0  9993
2 19210  82.5086  63.0845 0011766 141.7367 218.4711 15.29907976 52220
SL-8 R/B                
1 19257U 88053B   26163.16052318  .00000141  00000+0  54088-4 0  9996
2 19257  74.0479 298.3232 0019166  95.5126  76.9809 14.38965545990183
COSMOS 1975             
1 19573U 88093A   26163.05066213  .00006286  00000+0  21996-3 0  9995
2 19573  82.5200  22.8693 0010783 189.4509 170.6530 15.29261235 33823
SL-14 R/B               
1 19574U 88093B   26163.22638743  .00000424  00000+0  45758-4 0  9999
2 19574  82.5307 313.3024 0022187  85.7424   1.0473 14.85738248 15055
SL-16 R/B               
1 19650U 88102B   26163.13147645 -.00000226  00000+0 -89908-4 0  9998
2 19650  71.0003 312.7772 0016004 232.5252 127.4417 14.16165812940267
INTERCOSMOS 24          
1 20261U 89080A   26163.17171275  .00000866  00000+0  24566-3 0  9990
2 20261  82.6070  42.9082 1188403  73.5328 299.2807 12.59654110678691
SL-14 R/B               
1 20262U 89080C   26163.28251983  .00000341  00000+0  10190-3 0  9994
2 20262  82.5927 112.4585 1229013 328.6258  24.6791 12.50567998671976
DELTA 1 R/B             
1 20323U 89089B   26163.25321694  .00000319  00000+0  87379-4 0  9994
2 20323  97.0638 355.6010 0068810 182.5191 177.5671 14.50728292909445
ARIANE 40 R/B           
1 20443U 90005H   26163.18050750  .00000227  00000+0  85644-4 0  9992
2 20443  98.2959 220.9519 0008819 281.6761  78.3437 14.39924951906400
DELTA 2 R/B(1)          
1 20453U 90008B   26162.71644654  .00085127  00000+0  65005-3 0  9996
2 20453  35.6000 272.2355 0066127  62.2827 298.4602 15.67969753940849
